0 COSMOS 1174
1 11765U 80030A   14044.20656225  .00007009  00000-0  35613-3 0  5085
2 11765 066.0912 014.5055 0583080 328.6517 028.0994 14.32203730731651
